NORAD_CAT_ID,OBJECT_NAME,OBJECT_TYPE,EPOCH,MEAN_MOTION,ECCENTRICITY,INCLINATION,RA_OF_ASC_NODE,ARG_OF_PERICENTER,MEAN_ANOMALY,BSTAR,MEAN_MOTION_DOT,MEAN_MOTION_DDOT,TLE_LINE0,TLE_LINE1,TLE_LINE2,SEMIMAJOR_AXIS,PERIOD,APOGEE,PERIGEE,DECAYED
54175.0,STARLINK-5256,PAYLOAD,2023-04-08 03:11:44,15.08838654,0.000147,53.2155,112.0857,96.2461,263.8698,2.5517e-05,1.18e-06,0.0,0 STARLINK-5256,1 54175U 22141U   23098.13315349  .00000118  00000-0  25517-4 0  9997,2 54175  53.2155 112.0857 0001470  96.2461 263.8698 15.08838654 24847,6917.885,95.438,540.766,538.733,0.0
54175.0,STARLINK-5256,PAYLOAD,2023-04-08 09:33:16,15.08840578,0.0001448,53.2163,110.8967,102.5303,257.5851,9.0879e-07,-2.73e-06,0.0,0 STARLINK-5256,1 54175U 22141U   23098.39811327 -.00000273  00000-0  90879-6 0  9990,2 54175  53.2163 110.8967 0001448 102.5303 257.5851 15.08840578 24888,6917.879,95.438,540.745,538.742,0.0
54175.0,STARLINK-5256,PAYLOAD,2023-04-09 10:59:27,15.08842902,0.0001375,53.2165,106.139,93.4016,266.7133,9.7207e-05,1.26e-05,0.0,0 STARLINK-5256,1 54175U 22141U   23099.45795319  .00001260  00000-0  97207-4 0  9996,2 54175  53.2165 106.1390 0001375  93.4016 266.7133 15.08842902 25043,6917.872,95.437,540.688,538.785,0.0
54175.0,STARLINK-5256,PAYLOAD,2023-04-10 09:14:51,15.08839574,0.000135,53.2178,101.9768,94.7881,265.3265,0.00010904,1.448e-05,0.0,0 STARLINK-5256,1 54175U 22141U   23100.38531945  .00001448  00000-0  10904-3 0  9990,2 54175  53.2178 101.9768 0001350  94.7881 265.3265 15.08839574 25183,6917.882,95.438,540.681,538.813,0.0
54175.0,STARLINK-5256,PAYLOAD,2023-04-10 12:25:37,15.08842049,0.0001311,53.2177,101.3815,94.0506,266.0636,0.00012267,1.665e-05,0.0,0 STARLINK-5256,1 54175U 22141U   23100.51779738  .00001665  00000-0  12267-3 0  9994,2 54175  53.2177 101.3815 0001311  94.0506 266.0636 15.08842049 25207,6917.874,95.437,540.646,538.832,0.0
54175.0,STARLINK-5256,PAYLOAD,2023-04-10 18:47:10,15.08839518,0.0001335,53.2176,100.1921,95.0069,265.1075,0.00010074,1.316e-05,0.0,0 STARLINK-5256,1 54175U 22141U   23100.78275978  .00001316  00000-0  10074-3 0  9997,2 54175  53.2176 100.1921 0001335  95.0069 265.1075 15.08839518 25240,6917.882,95.438,540.67,538.823,0.0
54175.0,STARLINK-5256,PAYLOAD,2023-04-11 09:05:38,15.08847337,0.0001363,53.2174,97.5157,89.9053,270.2096,8.1642e-05,1.012e-05,0.0,0 STARLINK-5256,1 54175U 22141U   23101.37891531  .00001012  00000-0  81642-4 0  9995,2 54175  53.2174  97.5157 0001363  89.9053 270.2096 15.08847337 25332,6917.858,95.437,540.666,538.78,0.0
54175.0,STARLINK-5256,PAYLOAD,2023-04-11 17:02:34,15.08844251,0.0001377,53.2169,96.0295,89.3288,270.7862,5.5824e-05,6.01e-06,0.0,0 STARLINK-5256,1 54175U 22141U   23101.71011697  .00000601  00000-0  55824-4 0  9996,2 54175  53.2169  96.0295 0001377  89.3288 270.7862 15.08844251 25385,6917.867,95.437,540.685,538.78,0.0
54175.0,STARLINK-5256,PAYLOAD,2023-04-12 10:31:48,15.0884834,0.0001292,53.2179,92.7573,102.9854,257.1283,7.6401e-05,9.29e-06,0.0,0 STARLINK-5256,1 54175U 22141U   23102.43875275  .00000929  00000-0  76401-4 0  9993,2 54175  53.2179  92.7573 0001292 102.9854 257.1283 15.08848340 25496,6917.855,95.437,540.614,538.826,0.0
54175.0,STARLINK-5256,PAYLOAD,2023-04-13 05:36:26,15.08833004,8.23e-05,53.2206,89.1934,54.5813,305.5256,6.0313e-05,6.72e-06,0.0,0 STARLINK-5256,1 54175U 22141U   23103.23364573  .00000672  00000-0  60313-4 0  9996,2 54175  53.2206  89.1934 0000823  54.5813 305.5256 15.08833004 25617,6917.902,95.438,540.336,539.197,0.0
54175.0,STARLINK-5256,PAYLOAD,2023-04-14 07:02:36,15.08848028,0.0001261,53.2169,84.4336,88.7905,271.3232,0.00013602,1.878e-05,0.0,0 STARLINK-5256,1 54175U 22141U   23104.29347789  .00001878  00000-0  13602-3 0  9990,2 54175  53.2169  84.4336 0001261  88.7905 271.3232 15.08848028 25770,6917.856,95.437,540.593,538.849,0.0
54175.0,STARLINK-5256,PAYLOAD,2023-04-15 08:28:46,15.08851665,0.0001363,53.2178,79.6747,94.1615,265.9533,0.00021881,3.197e-05,0.0,0 STARLINK-5256,1 54175U 22141U   23105.35331550  .00003197  00000-0  21881-3 0  9991,2 54175  53.2178  79.6747 0001363  94.1615 265.9533 15.08851665 25936,6917.845,95.437,540.653,538.767,0.0
54175.0,STARLINK-5256,PAYLOAD,2023-04-16 08:19:33,15.08841864,0.0001253,53.2174,75.2142,90.8854,269.2281,3.884e-05,3.3e-06,0.0,0 STARLINK-5256,1 54175U 22141U   23106.34692090  .00000330  00000-0  38840-4 0  9990,2 54175  53.2174  75.2142 0001253  90.8854 269.2281 15.08841864 26083,6917.875,95.437,540.607,538.873,0.0
54175.0,STARLINK-5256,PAYLOAD,2023-04-17 04:59:35,15.08838179,0.0001229,53.2176,71.3488,90.5768,269.5365,-7.9548e-06,-4.14e-06,0.0,0 STARLINK-5256,1 54175U 22141U   23107.20804605 -.00000414  00000-0 -79548-5 0  9999,2 54175  53.2176  71.3488 0001229  90.5768 269.5365 15.08838179 26215,6917.886,95.438,540.601,538.901,0.0
54175.0,STARLINK-5256,PAYLOAD,2023-04-17 06:34:58,15.08842226,0.0001227,53.2176,71.0515,87.0883,273.0249,6.0032e-05,6.68e-06,0.0,0 STARLINK-5256,1 54175U 22141U   23107.27428436  .00000668  00000-0  60032-4 0  9996,2 54175  53.2176  71.0515 0001227  87.0883 273.0249 15.08842226 26220,6917.874,95.437,540.587,538.89,0.0
54175.0,STARLINK-5256,PAYLOAD,2023-04-18 06:25:45,15.08842539,0.000129,53.218,66.5905,85.3231,274.7909,0.00020859,3.034e-05,0.0,0 STARLINK-5256,1 54175U 22141U   23108.26788738  .00003034  00000-0  20859-3 0  9992,2 54175  53.2180  66.5905 0001290  85.3231 274.7909 15.08842539 26379,6917.873,95.437,540.63,538.845,0.0
54175.0,STARLINK-5256,PAYLOAD,2023-04-18 20:44:15,15.08812224,0.0001568,53.2188,63.9146,76.5678,283.5489,-0.00017695,-3.101e-05,0.0,0 STARLINK-5256,1 54175U 22141U   23108.86407225 -.00003101  00000-0 -17695-3 0  9998,2 54175  53.2188  63.9146 0001568  76.5678 283.5489 15.08812224 26469,6917.965,95.439,540.915,538.746,0.0
54175.0,STARLINK-5256,PAYLOAD,2023-04-19 03:05:47,15.08838736,0.0001241,53.2188,62.724,84.1524,275.961,0.00018796,2.705e-05,0.0,0 STARLINK-5256,1 54175U 22141U   23109.12902177  .00002705  00000-0  18796-3 0  9994,2 54175  53.2188  62.7240 0001241  84.1524 275.9610 15.08838736 26506,6917.884,95.438,540.608,538.891,0.0
54175.0,STARLINK-5256,PAYLOAD,2023-04-19 04:41:10,15.0884058,0.0001268,53.2189,62.4265,85.5494,274.5643,0.00022155,3.24e-05,0.0,0 STARLINK-5256,1 54175U 22141U   23109.19526166  .00003240  00000-0  22155-3 0  9990,2 54175  53.2189  62.4265 0001268  85.5494 274.5643 15.08840580 26513,6917.879,95.438,540.621,538.866,0.0
54175.0,STARLINK-5256,PAYLOAD,2023-04-20 02:56:33,15.08864658,0.0001285,53.2187,58.2635,92.0138,268.1001,0.0006934,0.00010772,0.0,0 STARLINK-5256,1 54175U 22141U   23110.12261338  .00010772  00000-0  69340-3 0  9997,2 54175  53.2187  58.2635 0001285  92.0138 268.1001 15.08864658 26656,6917.805,95.436,540.559,538.781,0.0
54175.0,STARLINK-5256,PAYLOAD,2023-04-20 23:36:34,15.08851891,0.0001233,53.2194,54.3985,99.1033,261.0099,0.00014195,1.973e-05,0.0,0 STARLINK-5256,1 54175U 22141U   23110.98373430  .00001973  00000-0  14195-3 0  9999,2 54175  53.2194  54.3985 0001233  99.1033 261.0099 15.08851891 26782,6917.844,95.437,540.562,538.856,0.0
54175.0,STARLINK-5256,PAYLOAD,2023-04-21 02:47:20,15.08849221,0.0001099,53.2189,53.8034,80.0648,280.0468,7.0722e-05,8.38e-06,0.0,0 STARLINK-5256,1 54175U 22141U   23111.11621460  .00000838  00000-0  70722-4 0  9992,2 54175  53.2189  53.8034 0001099  80.0648 280.0468 15.08849221 26804,6917.852,95.437,540.477,538.957,0.0
54175.0,STARLINK-5256,PAYLOAD,2023-04-21 20:16:35,15.0884049,0.0001136,53.2185,50.5331,82.0816,278.0305,-1.7269e-05,-5.63e-06,0.0,0 STARLINK-5256,1 54175U 22141U   23111.84485671 -.00000563  00000-0 -17269-4 0  9998,2 54175  53.2185  50.5331 0001136  82.0816 278.0305 15.08840490 26913,6917.879,95.438,540.53,538.958,0.0
54175.0,STARLINK-5256,PAYLOAD,2023-04-22 02:38:07,15.08852309,0.0001199,53.2186,49.3451,92.5848,267.5281,1.6685e-05,-2.2e-07,0.0,0 STARLINK-5256,1 54175U 22141U   23112.10981068 -.00000022  00000-0  16685-4 0  9999,2 54175  53.2186  49.3451 0001199  92.5848 267.5281 15.08852309 26955,6917.843,95.437,540.537,538.878,0.0
54175.0,STARLINK-5256,PAYLOAD,2023-04-23 05:39:40,15.08851674,0.0001241,53.2189,44.2903,106.8534,253.2594,0.00025743,3.813e-05,0.0,0 STARLINK-5256,1 54175U 22141U   23113.23588740  .00003813  00000-0  25743-3 0  9998,2 54175  53.2189  44.2903 0001241 106.8534 253.2594 15.08851674 27126,6917.845,95.437,540.568,538.851,0.0
54175.0,STARLINK-5256,PAYLOAD,2023-04-24 02:19:41,15.08844784,8.09e-05,53.2177,40.4292,115.6854,244.4221,7.1994e-05,8.58e-06,0.0,0 STARLINK-5256,1 54175U 22141U   23114.09701004  .00000858  00000-0  71994-4 0  9999,2 54175  53.2177  40.4292 0000809 115.6854 244.4221 15.08844784 27251,6917.866,95.437,540.29,539.171,0.0
54175.0,STARLINK-5256,PAYLOAD,2023-04-24 03:55:03,15.08872073,0.0001315,53.2193,40.1278,107.4425,252.671,0.00047938,7.356e-05,0.0,0 STARLINK-5256,1 54175U 22141U   23114.16323843  .00007356  00000-0  47938-3 0  9998,2 54175  53.2193  40.1278 0001315 107.4425 252.6710 15.08872073 27263,6917.782,95.436,540.557,538.738,0.0
54175.0,STARLINK-5256,PAYLOAD,2023-04-25 02:10:26,15.08882585,0.0001172,53.2185,35.9645,96.0584,264.0542,0.00050365,7.746e-05,0.0,0 STARLINK-5256,1 54175U 22141U   23115.09057889  .00007746  00000-0  50365-3 0  9996,2 54175  53.2185  35.9645 0001172  96.0584 264.0542 15.08882585 27409,6917.75,95.435,540.426,538.804,0.0
54175.0,STARLINK-5256,PAYLOAD,2023-04-26 03:36:39,15.08783468,0.0001172,53.2179,31.2069,94.0758,266.0368,-0.0011573,-0.0001863,0.0,0 STARLINK-5256,1 54175U 22141U   23116.15046101 -.00018630  00000-0 -11573-2 0  9992,2 54175  53.2179  31.2069 0001172  94.0758 266.0368 15.08783468 27567,6918.053,95.441,540.729,539.107,0.0
54175.0,STARLINK-5256,PAYLOAD,2023-04-26 21:05:54,15.08814327,0.0001153,53.2175,27.941,101.9705,258.1416,-0.00012413,-2.261e-05,0.0,0 STARLINK-5256,1 54175U 22141U   23116.87910296 -.00002261  00000-0 -12413-3 0  9994,2 54175  53.2175  27.9410 0001153 101.9705 258.1416 15.08814327 27671,6917.959,95.439,540.622,539.026,0.0
